
# Worst residual: 119.58 km
# MJD 59168.000000 (2020 Nov 15  0:00)
ZTF0Dip = ZTF0DkY = ZTF0DcD
1 99999U 00000    20320.49919926  .00000000  00000-0  00000-0 0  9384
2 99999 023.8840 337.4123 5984710 205.7765 109.0767 00.93263023    09

# Worst residual: 96.11 km
# MJD 59169.000000 (2020 Nov 16  0:00)
ZTF0Dip = ZTF0DkY = ZTF0DcD
1 99999U 00000    20321.49919926  .00000000  00000-0  00000-0 0  9385
2 99999 023.8657 337.3642 5934114 206.2217 083.5573 00.93283282    01

# Worst residual: 70.16 km
# MJD 59170.000000 (2020 Nov 17  0:00)
ZTF0Dip = ZTF0DkY = ZTF0DcD
1 99999U 00000    20322.49919926  .00000000  00000-0  00000-0 0  9386
2 99999 023.8457 337.3165 5881192 206.6969 057.8231 00.93257945    06

# Worst residual: 103.39 km
# MJD 59171.000000 (2020 Nov 18  0:00)
ZTF0Dip = ZTF0DkY = ZTF0DcD
1 99999U 00000    20323.49919926  .00000000  00000-0  00000-0 0  9387
2 99999 023.8262 337.2707 5829405 207.1905 031.8988 00.93178955    00

# Worst residual: 121.76 km
# MJD 59172.000000 (2020 Nov 19  0:00)
ZTF0Dip = ZTF0DkY = ZTF0DcD
1 99999U 00000    20324.49919926  .00000000  00000-0  00000-0 0  9388
2 99999 023.8047 337.2218 5780005 207.6799 005.8464 00.93053474    04

# Worst residual: 112.45 km
# MJD 59173.000000 (2020 Nov 20  0:00)
ZTF0Dip = ZTF0DkY = ZTF0DcD
1 99999U 00000    20325.49919926  .00000000  00000-0  00000-0 0  9389
2 99999 023.7897 337.1862 5729678 208.1396 339.6918 00.92893952    02

# Worst residual: 106.06 km
# MJD 59174.000000 (2020 Nov 21  0:00)
ZTF0Dip = ZTF0DkY = ZTF0DcD
1 99999U 00000    20326.49919926  .00000000  00000-0  00000-0 0  9380
2 99999 023.7722 337.1530 5678180 208.5782 313.4584 00.92752044    00

# Worst residual: 93.83 km
# MJD 59175.000000 (2020 Nov 22  0:00)
ZTF0Dip = ZTF0DkY = ZTF0DcD
1 99999U 00000    20327.49919926  .00000000  00000-0  00000-0 0  9381
2 99999 023.7573 337.1102 5623153 209.0148 287.1128 00.92624784    01

# Worst residual: 56.62 km
# MJD 59176.000000 (2020 Nov 23  0:00)
ZTF0Dip = ZTF0DkY = ZTF0DcD
1 99999U 00000    20328.49919926  .00000000  00000-0  00000-0 0  9382
2 99999 023.7430 337.0684 5566556 209.4838 260.5961 00.92536999    00

# Worst residual: 87.33 km
# MJD 59177.000000 (2020 Nov 24  0:00)
ZTF0Dip = ZTF0DkY = ZTF0DcD
1 99999U 00000    20329.49919926  .00000000  00000-0  00000-0 0  9383
2 99999 023.7355 337.0410 5509826 209.9760 233.8839 00.92488406    05

# Worst residual: 94.57 km
# MJD 59178.000000 (2020 Nov 25  0:00)
ZTF0Dip = ZTF0DkY = ZTF0DcD
1 99999U 00000    20330.49919926  .00000000  00000-0  00000-0 0  9385
2 99999 023.7173 337.0013 5458730 210.4949 207.0110 00.92497559    09

# Worst residual: 91.99 km
# MJD 59179.000000 (2020 Nov 26  0:00)
ZTF0Dip = ZTF0DkY = ZTF0DcD
1 99999U 00000    20331.49919926  .00000000  00000-0  00000-0 0  9386
2 99999 023.7058 336.9651 5410669 210.9887 179.9930 00.92548489    08

# Worst residual: 135.73 km
# MJD 59180.000000 (2020 Nov 27  0:00)
ZTF0Dip = ZTF0DkY = ZTF0DcD
1 99999U 00000    20332.49919926  .00000000  00000-0  00000-0 0  9387
2 99999 023.6958 336.9307 5365538 211.4207 152.8760 00.92636022    02

# Worst residual: 138.74 km
# MJD 59181.000000 (2020 Nov 28  0:00)
ZTF0Dip = ZTF0DkY = ZTF0DcD
1 99999U 00000    20333.49919926  .00000000  00000-0  00000-0 0  9388
2 99999 023.6883 336.9184 5312382 211.7970 125.6129 00.92690973    03

# Worst residual: 113.70 km
# MJD 59182.000000 (2020 Nov 29  0:00)
ZTF0Dip = ZTF0DkY = ZTF0DcD
1 99999U 00000    20334.49919926  .00000000  00000-0  00000-0 0  9389
2 99999 023.6803 336.8677 5253001 212.2197 098.1597 00.92723457    07

# Worst residual: 74.89 km
# MJD 59183.000000 (2020 Nov 30  0:00)
ZTF0Dip = ZTF0DkY = ZTF0DcD
1 99999U 00000    20335.49919926  .00000000  00000-0  00000-0 0  9380
2 99999 023.6671 336.8331 5191029 212.6767 070.4589 00.92709681    02

# Worst residual: 85.18 km
# MJD 59184.000000 (2020 Dec  1  0:00)
ZTF0Dip = ZTF0DkY = ZTF0DcD
1 99999U 00000    20336.49919926  .00000000  00000-0  00000-0 0  9381
2 99999 023.6710 336.8156 5129188 213.1407 042.5680 00.92639576    02

# Worst residual: 113.61 km
# MJD 59185.000000 (2020 Dec  2  0:00)
ZTF0Dip = ZTF0DkY = ZTF0DcD
1 99999U 00000    20337.49919926  .00000000  00000-0  00000-0 0  9382
2 99999 023.6578 336.7930 5070798 213.6261 014.5315 00.92514066    08

# Worst residual: 112.49 km
# MJD 59186.000000 (2020 Dec  3  0:00)
ZTF0Dip = ZTF0DkY = ZTF0DcD
1 99999U 00000    20338.49919926  .00000000  00000-0  00000-0 0  9383
2 99999 023.6575 336.7635 5013055 214.0851 346.4234 00.92343786    06

# Worst residual: 112.16 km
# MJD 59187.000000 (2020 Dec  4  0:00)
ZTF0Dip = ZTF0DkY = ZTF0DcD
1 99999U 00000    20339.49919926  .00000000  00000-0  00000-0 0  9384
2 99999 023.6554 336.7384 4954083 214.5025 318.2769 00.92182014    01

# Worst residual: 94.09 km
# MJD 59188.000000 (2020 Dec  5  0:00)
ZTF0Dip = ZTF0DkY = ZTF0DcD
1 99999U 00000    20340.49919926  .00000000  00000-0  00000-0 0  9386
2 99999 023.6508 336.7207 4889318 214.9082 290.0333 00.92060870    08

# Worst residual: 67.26 km
# MJD 59189.000000 (2020 Dec  6  0:00)
ZTF0Dip = ZTF0DkY = ZTF0DcD
1 99999U 00000    20341.49919926  .00000000  00000-0  00000-0 0  9387
2 99999 023.6488 336.7006 4822922 215.3553 261.6345 00.91983210    06

# Worst residual: 95.69 km
# MJD 59190.000000 (2020 Dec  7  0:00)
ZTF0Dip = ZTF0DkY = ZTF0DcD
1 99999U 00000    20342.49919926  .00000000  00000-0  00000-0 0  9388
2 99999 023.6467 336.6779 4758994 215.8644 233.0364 00.91967947    05

# Worst residual: 105.19 km
# MJD 59191.000000 (2020 Dec  8  0:00)
ZTF0Dip = ZTF0DkY = ZTF0DcD
1 99999U 00000    20343.49919926  .00000000  00000-0  00000-0 0  9389
2 99999 023.6468 336.6644 4700463 216.3615 204.3045 00.91997248    03

# Worst residual: 105.77 km
# MJD 59192.000000 (2020 Dec  9  0:00)
ZTF0Dip = ZTF0DkY = ZTF0DcD
1 99999U 00000    20344.49919926  .00000000  00000-0  00000-0 0  9380
2 99999 023.6467 336.6485 4646532 216.8241 175.4594 00.92080135    07

# Worst residual: 140.19 km
# MJD 59193.000000 (2020 Dec 10  0:00)
ZTF0Dip = ZTF0DkY = ZTF0DcD
1 99999U 00000    20345.49919926  .00000000  00000-0  00000-0 0  9381
2 99999 023.6435 336.6477 4592502 217.1868 146.5471 00.92173466    02

# Worst residual: 132.48 km
# MJD 59194.000000 (2020 Dec 11  0:00)
ZTF0Dip = ZTF0DkY = ZTF0DcD
1 99999U 00000    20346.49919926  .00000000  00000-0  00000-0 0  9382
2 99999 023.6472 336.6199 4529088 217.5572 117.4987 00.92242636    04

# Worst residual: 91.67 km
# MJD 59195.000000 (2020 Dec 12  0:00)
ZTF0Dip = ZTF0DkY = ZTF0DcD
1 99999U 00000    20347.49919926  .00000000  00000-0  00000-0 0  9383
2 99999 023.6439 336.6057 4460190 217.9611 088.2244 00.92259675    08

# Worst residual: 74.37 km
# MJD 59196.000000 (2020 Dec 13  0:00)
ZTF0Dip = ZTF0DkY = ZTF0DcD
1 99999U 00000    20348.49919926  .00000000  00000-0  00000-0 0  9384
2 99999 023.6512 336.5944 4389885 218.4341 058.7071 00.92210151    07
